[
  {"id": "cv_001", "nom": "Alice L.", "etudes": [{"diplome": "Master Informatique", "domaine": "Développement logiciel", "institution": "ULB", "periode": "2016-2018"}], "langues": [{"langue": "francais", "niveau": "C2"}, {"langue": "anglais", "niveau": "B2"}], "localisation": {"ville": "Bruxelles", "code_postal": "1000"}},
  {"id": "cv_002", "nom": "Bob M.", "etudes": [{"diplome": "Bachelier Ingénieur industriel", "domaine": "Electronique", "institution": "HEPL", "periode": "2018-2021"}], "langues": [{"langue": "francais", "niveau": "C1"}], "localisation": {"ville": "Liège", "code_postal": "4000"}},
  {"id": "cv_003", "nom": "Carole P.", "etudes": [{"diplome": "Master Biologie", "domaine": "Biotechnologies", "institution": "UCLouvain", "periode": "2017-2019"}], "langues": [{"langue": "francais", "niveau": "C2"}, {"langue": "anglais", "niveau": "C1"}, {"langue": "néerlandais", "niveau": "A2"}], "localisation": {"ville": "Namur", "code_postal": "5000"}},
  {"id": "cv_004", "nom": "David J.", "etudes": [{"diplome": "Master Data Science", "domaine": "IA", "institution": "UMons", "periode": "2018-2020"}], "langues": [{"langue": "anglais", "niveau": "C1"}, {"langue": "francais", "niveau": "B2"}], "localisation": {"ville": "Mons", "code_postal": "7000"}},
  {"id": "cv_005", "nom": "Emma S.", "etudes": [{"diplome": "Bachelier Marketing", "domaine": "Digital", "institution": "HEPL", "periode": "2017-2020"}], "langues": [{"langue": "francais", "niveau": "C2"}], "localisation": {"ville": "Liège", "code_postal": "4000"}},
  {"id": "cv_006", "nom": "Fatou D.", "etudes": [{"diplome": "Master Finance", "domaine": "Banque", "institution": "HEC-ULG", "periode": "2016-2018"}], "langues": [{"langue": "francais", "niveau": "C2"}, {"langue": "anglais", "niveau": "B2"}], "localisation": {"ville": "Bruxelles", "code_postal": "1000"}},
  {"id": "cv_007", "nom": "Georges V.", "etudes": [{"diplome": "Master Ingénieur Civil", "domaine": "Bâtiment", "institution": "ULB", "periode": "2015-2017"}], "langues": [{"langue": "francais", "niveau": "C2"}, {"langue": "allemand", "niveau": "B1"}], "localisation": {"ville": "Arlon", "code_postal": "6700"}},
  {"id": "cv_008", "nom": "Hajar T.", "etudes": [{"diplome": "PhD Chimie", "domaine": "Matériaux", "institution": "ULiège", "periode": "2014-2018"}], "langues": [{"langue": "francais", "niveau": "C2"}, {"langue": "anglais", "niveau": "C2"}], "localisation": {"ville": "Liège", "code_postal": "4000"}},
  {"id": "cv_009", "nom": "Issa K.", "etudes": [{"diplome": "Master Mathématiques", "domaine": "Actuariat", "institution": "UCLouvain", "periode": "2016-2018"}], "langues": [{"langue": "francais", "niveau": "C1"}, {"langue": "anglais", "niveau": "B2"}], "localisation": {"ville": "Charleroi", "code_postal": "6000"}},
  {"id": "cv_010", "nom": "Julie N.", "etudes": [{"diplome": "Bachelor Infirmière", "domaine": "Santé", "institution": "HELHa", "periode": "2018-2021"}], "langues": [{"langue": "francais", "niveau": "C2"}, {"langue": "néerlandais", "niveau": "A2"}], "localisation": {"ville": "Namur", "code_postal": "5000"}},
  {"id": "cv_011", "nom": "Kevin B.", "etudes": [{"diplome": "Bachelor Informatique", "domaine": "Réseaux", "institution": "EPHEC", "periode": "2018-2021"}], "langues": [{"langue": "francais", "niveau": "C2"}, {"langue": "anglais", "niveau": "B1"}], "localisation": {"ville": "Mons", "code_postal": "7000"}},
  {"id": "cv_012", "nom": "Lina Z.", "etudes": [{"diplome": "Master Gestion", "domaine": "RH", "institution": "ULB", "periode": "2017-2019"}], "langues": [{"langue": "francais", "niveau": "C2"}, {"langue": "anglais", "niveau": "B2"}], "localisation": {"ville": "Bruxelles", "code_postal": "1000"}}
]